{
    "links": {
        "self": "http://www.neowsapp.com/rest/v1/neo/3748478?api_key=iIulBulltgU6a56xZRHN4H3l9WmuAYTsLGpBGhQ2"
    },
    "id": "3748478",
    "neo_reference_id": "3748478",
    "name": "(2016 FL13)",
    "designation": "2016 FL13",
    "nasa_jpl_url": "http://ssd.jpl.nasa.gov/sbdb.cgi?sstr=3748478",
    "absolute_magnitude_h": 25.4,
    "estimated_diameter": {
        "kilometers": {
            "estimated_diameter_min": 0.022108281,
            "estimated_diameter_max": 0.0494356193
        },
        "meters": {
            "estimated_diameter_min": 22.1082810359,
            "estimated_diameter_max": 49.435619262
        },
        "miles": {
            "estimated_diameter_min": 0.0137374447,
            "estimated_diameter_max": 0.0307178602
        },
        "feet": {
            "estimated_diameter_min": 72.5337327539,
            "estimated_diameter_max": 162.1903570994
        }
    },
    "is_potentially_hazardous_asteroid": false,
    "close_approach_data": [
        {
            "close_approach_date": "2016-04-15",
            "close_approach_date_full": "2016-Apr-15 16:57",
            "epoch_date_close_approach": 1460739420000,
            "relative_velocity": {
                "kilometers_per_second": "11.9941472618",
                "kilometers_per_hour": "43178.9301425077",
                "miles_per_hour": "26829.7080099376"
            },
            "miss_distance": {
                "astronomical": "0.0250356654",
                "lunar": "9.7388738406",
                "kilometers": "3745282.217872698",
                "miles": "2327210.4560033124"
            },
            "orbiting_body": "Earth"
        }
    ],
    "orbital_data": {
        "orbit_id": "15",
        "orbit_determination_date": "2017-04-06 08:27:08",
        "first_observation_date": "2016-03-28",
        "last_observation_date": "2016-04-16",
        "data_arc_in_days": 19,
        "observations_used": 68,
        "orbit_uncertainty": "7",
        "minimum_orbit_intersection": ".0244533",
        "jupiter_tisserand_invariant": "3.419",
        "epoch_osculation": "2459000.5",
        "eccentricity": ".5762553324383459",
        "semi_major_axis": "2.196583953657635",
        "inclination": "8.445554448824536",
        "ascending_node_longitude": "197.0498377238746",
        "orbital_period": "1189.104812883368",
        "perihelion_distance": ".9307907372139181",
        "perihelion_argument": "47.75806490408981",
        "aphelion_distance": "3.462377170101351",
        "perihelion_time": "2458713.993795112940",
        "mean_anomaly": "86.73939642817533",
        "mean_motion": ".3027487535998311",
        "equinox": "J2000",
        "orbit_class": {
            "orbit_class_type": "APO",
            "orbit_class_description": "Near-Earth asteroid orbits which cross the Earth’s orbit similar to that of 1862 Apollo",
            "orbit_class_range": "a (semi-major axis) > 1.0 AU; q (perihelion) < 1.017 AU"
        }
    },
    "is_sentry_object": false
}